{
  "type": "FeatureCollection",
  "features": [
    {
      "type": "Feature",
      "properties": {
        "norad_id": 35616,
        "name": "IRIDIUM 33 DEB",
        "group": "iridium-33-debris",
        "lat": 39.44397244544147,
        "lon": -16.555174434120307,
        "alt_km": 619.1603182551708,
        "timestamp": "2025-12-24T09:46:31.389581+00:00",
        "meta_object_name": "IRIDIUM 33 DEB",
        "meta_object_id": "1997-051QN",
        "meta_epoch": "2025-12-21T16:46:45.287328",
        "meta_mean_motion": 14.82015021,
        "meta_eccentricity": 0.00114093,
        "meta_inclination": 86.3545,
        "meta_ra_of_asc_node": 341.6744,
        "meta_arg_of_pericenter": 134.0095,
        "meta_mean_anomaly": 226.2069,
        "meta_ephemeris_type": 0,
        "meta_classification_type": "U",
        "meta_norad_cat_id": 35616,
        "meta_element_set_no": 999,
        "meta_rev_at_epoch": 87707,
        "meta_bstar": 0.0013754653,
        "meta_mean_motion_dot": 0.00010957,
        "meta_mean_motion_ddot": 0,
        "tle_line1": "1 35616U 97051QN  25355.69913527  .00010957  00000+0  13755-2 0  9999",
        "tle_line2": "2 35616  86.3545 341.6744 0011409 134.0095 226.2069 14.82015021877070"
      },
      "geometry": {
        "type": "Point",
        "coordinates": [
          -16.555174434120307,
          39.44397244544147
        ]
      }
    },
    {
      "type": "Feature",
      "properties": {
        "norad_id": 35618,
        "name": "IRIDIUM 33 DEB",
        "group": "iridium-33-debris",
        "lat": 2.7970263900750374,
        "lon": -11.416823951820888,
        "alt_km": 701.8254945349809,
        "timestamp": "2025-12-24T09:46:31.389591+00:00",
        "meta_object_name": "IRIDIUM 33 DEB",
        "meta_object_id": "1997-051QQ",
        "meta_epoch": "2025-12-21T17:16:24.492288",
        "meta_mean_motion": 14.52331103,
        "meta_eccentricity": 0.00284149,
        "meta_inclination": 86.341,
        "meta_ra_of_asc_node": 349.5786,
        "meta_arg_of_pericenter": 351.4344,
        "meta_mean_anomaly": 8.6373,
        "meta_ephemeris_type": 0,
        "meta_classification_type": "U",
        "meta_norad_cat_id": 35618,
        "meta_element_set_no": 999,
        "meta_rev_at_epoch": 65524,
        "meta_bstar": 0.00039049847,
        "meta_mean_motion_dot": 1.617e-05,
        "meta_mean_motion_ddot": 0,
        "tle_line1": "1 35618U 97051QQ  25355.71972792  .00001617  00000+0  39050-3 0  9993",
        "tle_line2": "2 35618  86.3410 349.5786 0028414 351.4344   8.6373 14.52331103655244"
      },
      "geometry": {
        "type": "Point",
        "coordinates": [
          -11.416823951820888,
          2.7970263900750374
        ]
      }
    },
    {
      "type": "Feature",
      "properties": {
        "norad_id": 35620,
        "name": "IRIDIUM 33 DEB",
        "group": "iridium-33-debris",
        "lat": 66.65631531832078,
        "lon": 24.118990121961314,
        "alt_km": 785.1543821025962,
        "timestamp": "2025-12-24T09:46:31.389601+00:00",
        "meta_object_name": "IRIDIUM 33 DEB",
        "meta_object_id": "1997-051QS",
        "meta_epoch": "2025-12-24T00:53:30.548832",
        "meta_mean_motion": 14.38385762,
        "meta_eccentricity": 0.0138469,
        "meta_inclination": 86.3889,
        "meta_ra_of_asc_node": 212.6892,
        "meta_arg_of_pericenter": 221.3129,
        "meta_mean_anomaly": 137.7531,
        "meta_ephemeris_type": 0,
        "meta_classification_type": "U",
        "meta_norad_cat_id": 35620,
        "meta_element_set_no": 999,
        "meta_rev_at_epoch": 60128,
        "meta_bstar": 0.0046388,
        "meta_mean_motion_dot": 0.00015845,
        "meta_mean_motion_ddot": 0,
        "tle_line1": "1 35620U 97051QS  25358.03715913  .00015845  00000+0  46388-2 0  9993",
        "tle_line2": "2 35620  86.3889 212.6892 0138469 221.3129 137.7531 14.38385762601282"
      },
      "geometry": {
        "type": "Point",
        "coordinates": [
          24.118990121961314,
          66.65631531832078
        ]
      }
    },
    {
      "type": "Feature",
      "properties": {
        "norad_id": 35622,
        "name": "IRIDIUM 33 DEB",
        "group": "iridium-33-debris",
        "lat": 45.76444694187912,
        "lon": 73.933512812997,
        "alt_km": 546.9684008120385,
        "timestamp": "2025-12-24T09:46:31.389611+00:00",
        "meta_object_name": "IRIDIUM 33 DEB",
        "meta_object_id": "1997-051QU",
        "meta_epoch": "2025-12-23T17:21:42.229152",
        "meta_mean_motion": 15.05849301,
        "meta_eccentricity": 0.0003572,
        "meta_inclination": 86.199,
        "meta_ra_of_asc_node": 258.1866,
        "meta_arg_of_pericenter": 286.0081,
        "meta_mean_anomaly": 102.9668,
        "meta_ephemeris_type": 0,
        "meta_classification_type": "U",
        "meta_norad_cat_id": 35622,
        "meta_element_set_no": 999,
        "meta_rev_at_epoch": 87525,
        "meta_bstar": 0.0038142437,
        "meta_mean_motion_dot": 0.00055737,
        "meta_mean_motion_ddot": 0,
        "tle_line1": "1 35622U 97051QU  25357.72340543  .00055737  00000+0  38142-2 0  9996",
        "tle_line2": "2 35622  86.1990 258.1866 0003572 286.0081 102.9668 15.05849301875256"
      },
      "geometry": {
        "type": "Point",
        "coordinates": [
          73.933512812997,
          45.76444694187912
        ]
      }
    },
    {
      "type": "Feature",
      "properties": {
        "norad_id": 35628,
        "name": "IRIDIUM 33 DEB",
        "group": "iridium-33-debris",
        "lat": -3.5229996770729417,
        "lon": -175.90469025815094,
        "alt_km": 674.5846152138402,
        "timestamp": "2025-12-24T09:46:31.389622+00:00",
        "meta_object_name": "IRIDIUM 33 DEB",
        "meta_object_id": "1997-051RA",
        "meta_epoch": "2025-12-23T18:12:55.206720",
        "meta_mean_motion": 14.67731928,
        "meta_eccentricity": 0.00093939,
        "meta_inclination": 86.3568,
        "meta_ra_of_asc_node": 4.1597,
        "meta_arg_of_pericenter": 300.2687,
        "meta_mean_anomaly": 59.7597,
        "meta_ephemeris_type": 0,
        "meta_classification_type": "U",
        "meta_norad_cat_id": 35628,
        "meta_element_set_no": 999,
        "meta_rev_at_epoch": 86608,
        "meta_bstar": 0.0013868972,
        "meta_mean_motion_dot": 7.927e-05,
        "meta_mean_motion_ddot": 0,
        "tle_line1": "1 35628U 97051RA  25357.75897230  .00007927  00000+0  13869-2 0  9992",
        "tle_line2": "2 35628  86.3568   4.1597 0009393 300.2687  59.7597 14.67731928866086"
      },
      "geometry": {
        "type": "Point",
        "coordinates": [
          -175.90469025815094,
          -3.5229996770729417
        ]
      }
    },
    {
      "type": "Feature",
      "properties": {
        "norad_id": 35631,
        "name": "IRIDIUM 33 DEB",
        "group": "iridium-33-debris",
        "lat": -53.38090405336339,
        "lon": 11.045166327744017,
        "alt_km": 751.3811671802632,
        "timestamp": "2025-12-24T09:46:31.389632+00:00",
        "meta_object_name": "IRIDIUM 33 DEB",
        "meta_object_id": "1997-051RD",
        "meta_epoch": "2025-12-23T19:55:07.145184",
        "meta_mean_motion": 14.47339905,
        "meta_eccentricity": 0.00192581,
        "meta_inclination": 86.366,
        "meta_ra_of_asc_node": 16.1993,
        "meta_arg_of_pericenter": 85.1182,
        "meta_mean_anomaly": 95.1858,
        "meta_ephemeris_type": 0,
        "meta_classification_type": "U",
        "meta_norad_cat_id": 35631,
        "meta_element_set_no": 999,
        "meta_rev_at_epoch": 87357,
        "meta_bstar": 0.00033517524,
        "meta_mean_motion_dot": 1.25e-05,
        "meta_mean_motion_ddot": 0,
        "tle_line1": "1 35631U 97051RD  25357.82994381  .00001250  00000+0  33518-3 0  9996",
        "tle_line2": "2 35631  86.3660  16.1993 0019258  85.1182  95.1858 14.47339905873579"
      },
      "geometry": {
        "type": "Point",
        "coordinates": [
          11.045166327744017,
          -53.38090405336339
        ]
      }
    },
    {
      "type": "Feature",
      "properties": {
        "norad_id": 35680,
        "name": "IRIDIUM 33 DEB",
        "group": "iridium-33-debris",
        "lat": -73.86947884581086,
        "lon": -150.0084283126611,
        "alt_km": 723.3495533175956,
        "timestamp": "2025-12-24T09:46:31.389642+00:00",
        "meta_object_name": "IRIDIUM 33 DEB",
        "meta_object_id": "1997-051RJ",
        "meta_epoch": "2025-12-23T19:54:46.036800",
        "meta_mean_motion": 14.21087614,
        "meta_eccentricity": 0.01506225,
        "meta_inclination": 86.102,
        "meta_ra_of_asc_node": 16.6115,
        "meta_arg_of_pericenter": 242.9908,
        "meta_mean_anomaly": 297.7564,
        "meta_ephemeris_type": 0,
        "meta_classification_type": "U",
        "meta_norad_cat_id": 35680,
        "meta_element_set_no": 999,
        "meta_rev_at_epoch": 60858,
        "meta_bstar": 0.0032353227,
        "meta_mean_motion_dot": 7.897e-05,
        "meta_mean_motion_ddot": 0,
        "tle_line1": "1 35680U 97051RJ  25357.82969950  .00007897  00000+0  32353-2 0  9992",
        "tle_line2": "2 35680  86.1020  16.6115 0150622 242.9908 297.7564 14.21087614608582"
      },
      "geometry": {
        "type": "Point",
        "coordinates": [
          -150.0084283126611,
          -73.86947884581086
        ]
      }
    }
  ]
}